[{"OBJECT_NAME":"STARLINK-4607","OBJECT_ID":"2022-107AS","EPOCH":"2026-03-04T21:53:00.867840","MEAN_MOTION":15.08840184,"ECCENTRICITY":7.561e-5,"INCLINATION":53.2164,"RA_OF_ASC_NODE":285.4642,"ARG_OF_PERICENTER":93.6425,"MEAN_ANOMALY":266.4653,"EPHEMERIS_TYPE":0,"CLASSIFICATION_TYPE":"U","NORAD_CAT_ID":53740,"ELEMENT_SET_NO":999,"REV_AT_EPOCH":19387,"BSTAR":-6.524719e-5,"MEAN_MOTION_DOT":-1.326e-5,"MEAN_MOTION_DDOT":0},{"OBJECT_NAME":"STARLINK-4637","OBJECT_ID":"2022-107AU","EPOCH":"2026-03-04T14:01:23.437056","MEAN_MOTION":15.08823687,"ECCENTRICITY":0.0001366,"INCLINATION":53.2166,"RA_OF_ASC_NODE":286.9708,"ARG_OF_PERICENTER":102.9468,"MEAN_ANOMALY":257.1676,"EPHEMERIS_TYPE":0,"CLASSIFICATION_TYPE":"U","NORAD_CAT_ID":53742,"ELEMENT_SET_NO":999,"REV_AT_EPOCH":19382,"BSTAR":-6.3923e-5,"MEAN_MOTION_DOT":-1.305e-5,"MEAN_MOTION_DDOT":0},{"OBJECT_NAME":"STARLINK-4645","OBJECT_ID":"2022-107AV","EPOCH":"2026-03-05T14:13:24.415680","MEAN_MOTION":15.08823753,"ECCENTRICITY":8.82e-5,"INCLINATION":53.217,"RA_OF_ASC_NODE":282.6035,"ARG_OF_PERICENTER":101.7423,"MEAN_ANOMALY":258.3668,"EPHEMERIS_TYPE":0,"CLASSIFICATION_TYPE":"U","NORAD_CAT_ID":53743,"ELEMENT_SET_NO":999,"REV_AT_EPOCH":19397,"BSTAR":-9.7632e-5,"MEAN_MOTION_DOT":-1.84e-5,"MEAN_MOTION_DDOT":0},{"OBJECT_NAME":"STARLINK-4670","OBJECT_ID":"2022-107AW","EPOCH":"2026-03-05T17:55:52.791456","MEAN_MOTION":15.08836624,"ECCENTRICITY":0.0001142,"INCLINATION":53.217,"RA_OF_ASC_NODE":281.4442,"ARG_OF_PERICENTER":92.8803,"MEAN_ANOMALY":267.232,"EPHEMERIS_TYPE":0,"CLASSIFICATION_TYPE":"U","NORAD_CAT_ID":53744,"ELEMENT_SET_NO":999,"REV_AT_EPOCH":19400,"BSTAR":-1.0996e-5,"MEAN_MOTION_DOT":-4.63e-6,"MEAN_MOTION_DDOT":0},{"OBJECT_NAME":"STARLINK-4656","OBJECT_ID":"2022-107AX","EPOCH":"2026-03-05T07:57:12.986784","MEAN_MOTION":15.08801221,"ECCENTRICITY":0.0001673,"INCLINATION":53.2169,"RA_OF_ASC_NODE":283.8187,"ARG_OF_PERICENTER":89.2856,"MEAN_ANOMALY":270.8328,"EPHEMERIS_TYPE":0,"CLASSIFICATION_TYPE":"U","NORAD_CAT_ID":53745,"ELEMENT_SET_NO":999,"REV_AT_EPOCH":19393,"BSTAR":-0.00025777,"MEAN_MOTION_DOT":-4.384e-5,"MEAN_MOTION_DDOT":0},{"OBJECT_NAME":"STARLINK-4589","OBJECT_ID":"2022-107AY","EPOCH":"2026-03-04T23:49:36.751872","MEAN_MOTION":15.0884037,"ECCENTRICITY":0.00013751,"INCLINATION":53.2164,"RA_OF_ASC_NODE":285.2568,"ARG_OF_PERICENTER":90.0307,"MEAN_ANOMALY":270.0843,"EPHEMERIS_TYPE":0,"CLASSIFICATION_TYPE":"U","NORAD_CAT_ID":53746,"ELEMENT_SET_NO":999,"REV_AT_EPOCH":19388,"BSTAR":8.5205907e-5,"MEAN_MOTION_DOT":1.068e-5,"MEAN_MOTION_DDOT":0},{"OBJECT_NAME":"STARLINK-4612","OBJECT_ID":"2022-107BC","EPOCH":"2026-03-05T17:40:05.107872","MEAN_MOTION":15.08841962,"ECCENTRICITY":0.0001701,"INCLINATION":53.2164,"RA_OF_ASC_NODE":282.0791,"ARG_OF_PERICENTER":105.0908,"MEAN_ANOMALY":255.0272,"EPHEMERIS_TYPE":0,"CLASSIFICATION_TYPE":"U","NORAD_CAT_ID":53750,"ELEMENT_SET_NO":999,"REV_AT_EPOCH":19400,"BSTAR":8.6369e-5,"MEAN_MOTION_DOT":1.087e-5,"MEAN_MOTION_DDOT":0},{"OBJECT_NAME":"STARLINK-4718","OBJECT_ID":"2022-111A","EPOCH":"2026-03-05T08:42:10.254816","MEAN_MOTION":15.08833013,"ECCENTRICITY":0.0001318,"INCLINATION":53.2168,"RA_OF_ASC_NODE":303.4714,"ARG_OF_PERICENTER":85.2575,"MEAN_ANOMALY":274.8567,"EPHEMERIS_TYPE":0,"CLASSIFICATION_TYPE":"U","NORAD_CAT_ID":53773,"ELEMENT_SET_NO":999,"REV_AT_EPOCH":19319,"BSTAR":5.0316e-5,"MEAN_MOTION_DOT":5.13e-6,"MEAN_MOTION_DDOT":0},{"OBJECT_NAME":"STARLINK-4719","OBJECT_ID":"2022-111B","EPOCH":"2026-03-04T16:43:00.232608","MEAN_MOTION":15.08836079,"ECCENTRICITY":0.00017221,"INCLINATION":53.2173,"RA_OF_ASC_NODE":306.4212,"ARG_OF_PERICENTER":104.4254,"MEAN_ANOMALY":255.693,"EPHEMERIS_TYPE":0,"CLASSIFICATION_TYPE":"U","NORAD_CAT_ID":53774,"ELEMENT_SET_NO":999,"REV_AT_EPOCH":19295,"BSTAR":1.774366e-5,"MEAN_MOTION_DOT":-6.0e-8,"MEAN_MOTION_DDOT":0},{"OBJECT_NAME":"STARLINK-4722","OBJECT_ID":"2022-111C","EPOCH":"2026-03-05T20:28:20.395776","MEAN_MOTION":15.08835097,"ECCENTRICITY":0.0001432,"INCLINATION":53.2178,"RA_OF_ASC_NODE":291.5804,"ARG_OF_PERICENTER":86.2755,"MEAN_ANOMALY":273.8401,"EPHEMERIS_TYPE":0,"CLASSIFICATION_TYPE":"U","NORAD_CAT_ID":53775,"ELEMENT_SET_NO":999,"REV_AT_EPOCH":19311,"BSTAR":-1.3552e-5,"MEAN_MOTION_DOT":-5.04e-6,"MEAN_MOTION_DDOT":0},{"OBJECT_NAME":"STARLINK-4664","OBJECT_ID":"2022-111E","EPOCH":"2026-03-05T20:17:43.532736","MEAN_MOTION":15.08850496,"ECCENTRICITY":0.0001708,"INCLINATION":53.2182,"RA_OF_ASC_NODE":291.5309,"ARG_OF_PERICENTER":91.4673,"MEAN_ANOMALY":268.6514,"EPHEMERIS_TYPE":0,"CLASSIFICATION_TYPE":"U","NORAD_CAT_ID":53777,"ELEMENT_SET_NO":999,"REV_AT_EPOCH":19311,"BSTAR":-0.00019366,"MEAN_MOTION_DOT":-3.37e-5,"MEAN_MOTION_DDOT":0},{"OBJECT_NAME":"STARLINK-4709","OBJECT_ID":"2022-111F","EPOCH":"2026-03-04T16:19:47.376480","MEAN_MOTION":15.0883492,"ECCENTRICITY":0.00014027,"INCLINATION":53.2182,"RA_OF_ASC_NODE":301.3359,"ARG_OF_PERICENTER":99.1094,"MEAN_ANOMALY":261.0057,"EPHEMERIS_TYPE":0,"CLASSIFICATION_TYPE":"U","NORAD_CAT_ID":53778,"ELEMENT_SET_NO":999,"REV_AT_EPOCH":19287,"BSTAR":2.1091072e-5,"MEAN_MOTION_DOT":4.8e-7,"MEAN_MOTION_DDOT":0},{"OBJECT_NAME":"STARLINK-4706","OBJECT_ID":"2022-111G","EPOCH":"2026-03-05T15:26:16.830240","MEAN_MOTION":15.08822532,"ECCENTRICITY":0.00012,"INCLINATION":53.2177,"RA_OF_ASC_NODE":292.403,"ARG_OF_PERICENTER":91.8613,"MEAN_ANOMALY":268.2517,"EPHEMERIS_TYPE":0,"CLASSIFICATION_TYPE":"U","NORAD_CAT_ID":53779,"ELEMENT_SET_NO":999,"REV_AT_EPOCH":19308,"BSTAR":-0.00011119,"MEAN_MOTION_DOT":-2.056e-5,"MEAN_MOTION_DDOT":0},{"OBJECT_NAME":"STARLINK-4678","OBJECT_ID":"2022-111H","EPOCH":"2026-03-05T20:23:02.135328","MEAN_MOTION":15.08832486,"ECCENTRICITY":0.0001396,"INCLINATION":53.2164,"RA_OF_ASC_NODE":291.5561,"ARG_OF_PERICENTER":83.0716,"MEAN_ANOMALY":277.0434,"EPHEMERIS_TYPE":0,"CLASSIFICATION_TYPE":"U","NORAD_CAT_ID":53780,"ELEMENT_SET_NO":999,"REV_AT_EPOCH":19311,"BSTAR":-4.2723e-5,"MEAN_MOTION_DOT":-9.68e-6,"MEAN_MOTION_DDOT":0},{"OBJECT_NAME":"STARLINK-4462","OBJECT_ID":"2022-111J","EPOCH":"2026-03-05T08:48:48.387744","MEAN_MOTION":15.08834599,"ECCENTRICITY":0.000138,"INCLINATION":53.2167,"RA_OF_ASC_NODE":293.5249,"ARG_OF_PERICENTER":93.4109,"MEAN_ANOMALY":266.7041,"EPHEMERIS_TYPE":0,"CLASSIFICATION_TYPE":"U","NORAD_CAT_ID":53781,"ELEMENT_SET_NO":999,"REV_AT_EPOCH":19304,"BSTAR":-4.5654e-5,"MEAN_MOTION_DOT":-1.014e-5,"MEAN_MOTION_DDOT":0},{"OBJECT_NAME":"STARLINK-4679","OBJECT_ID":"2022-111K","EPOCH":"2026-03-05T01:02:28.972896","MEAN_MOTION":15.08842395,"ECCENTRICITY":0.00011979,"INCLINATION":53.2177,"RA_OF_ASC_NODE":295.0563,"ARG_OF_PERICENTER":86.2525,"MEAN_ANOMALY":273.8605,"EPHEMERIS_TYPE":0,"CLASSIFICATION_TYPE":"U","NORAD_CAT_ID":53782,"ELEMENT_SET_NO":999,"REV_AT_EPOCH":19299,"BSTAR":-8.511997e-6,"MEAN_MOTION_DOT":-4.23e-6,"MEAN_MOTION_DDOT":0}]
