STARLINK-4607           
1 53740U 22107AS  26063.91181560 -.00001326  00000+0 -65247-4 0  9990
2 53740  53.2164 285.4642 0000756  93.6425 266.4653 15.08840184193879
STARLINK-4637           
1 53742U 22107AU  26063.58429904 -.00001305  00000+0 -63923-4 0  9998
2 53742  53.2166 286.9708 0001366 102.9468 257.1676 15.08823687193827
STARLINK-4645           
1 53743U 22107AV  26064.59264370 -.00001840  00000+0 -97632-4 0  9993
2 53743  53.2170 282.6035 0000882 101.7423 258.3668 15.08823753193973
STARLINK-4670           
1 53744U 22107AW  26064.74713879 -.00000463  00000+0 -10996-4 0  9992
2 53744  53.2170 281.4442 0001142  92.8803 267.2320 15.08836624194005
STARLINK-4656           
1 53745U 22107AX  26064.33140031 -.00004384  00000+0 -25777-3 0  9990
2 53745  53.2169 283.8187 0001673  89.2856 270.8328 15.08801221193937
STARLINK-4589           
1 53746U 22107AY  26063.99278648  .00001068  00000+0  85206-4 0  9996
2 53746  53.2164 285.2568 0001375  90.0307 270.0843 15.08840370193888
STARLINK-4612           
1 53750U 22107BC  26064.73617023  .00001087  00000+0  86369-4 0  9990
2 53750  53.2164 282.0791 0001701 105.0908 255.0272 15.08841962194005
STARLINK-4718           
1 53773U 22111A   26064.36261869  .00000513  00000+0  50316-4 0  9998
2 53773  53.2168 303.4714 0001318  85.2575 274.8567 15.08833013193193
STARLINK-4719           
1 53774U 22111B   26063.69653047 -.00000006  00000+0  17744-4 0  9993
2 53774  53.2173 306.4212 0001722 104.4254 255.6930 15.08836079192952
STARLINK-4722           
1 53775U 22111C   26064.85301384 -.00000504  00000+0 -13552-4 0  9994
2 53775  53.2178 291.5804 0001432  86.2755 273.8401 15.08835097193113
STARLINK-4664           
1 53777U 22111E   26064.84564274 -.00003370  00000+0 -19366-3 0  9996
2 53777  53.2182 291.5309 0001708  91.4673 268.6514 15.08850496193110
STARLINK-4709           
1 53778U 22111F   26063.68040945  .00000048  00000+0  21091-4 0  9998
2 53778  53.2182 301.3359 0001402  99.1094 261.0057 15.08834920192874
STARLINK-4706           
1 53779U 22111G   26064.64325035 -.00002056  00000+0 -11119-3 0  9994
2 53779  53.2177 292.4030 0001200  91.8613 268.2517 15.08822532193087
STARLINK-4678           
1 53780U 22111H   26064.84933027 -.00000968  00000+0 -42723-4 0  9990
2 53780  53.2164 291.5561 0001396  83.0716 277.0434 15.08832486193116
STARLINK-4462           
1 53781U 22111J   26064.36722671 -.00001014  00000+0 -45654-4 0  9998
2 53781  53.2167 293.5249 0001380  93.4109 266.7041 15.08834599193047
STARLINK-4679           
1 53782U 22111K   26064.04339089 -.00000423  00000+0 -85120-5 0  9997
2 53782  53.2177 295.0563 0001197  86.2525 273.8605 15.08842395192994
